OBJECT B                
1 51825U 22019B   24176.90709787  .00009743  00000+0  42651-3 0  9995
2 51825  97.4282 248.1560 0014130 205.5783 154.4756 15.22152809128402
